     3.02           N: GNSS NAV DATA    R: GLONASS          RINEX VERSION / TYPE
NetR9 5.03          Receiver Operator   20160105 000000 UTC PGM / RUN BY / DATE
    17    17  1851     3                                    LEAP SECONDS
                                                            END OF HEADER
R21 2016 01 05 11 45 00  .454429537058D-04  .181898940355D-11  .414000000000D+05
     -.238771977539D+05 -.202205657959D+00 -.186264514923D-08  .000000000000D+00
      .879401171875D+04  .267399787903D+00  .186264514923D-08  .400000000000D+01
     -.200785839844D+04  .356711483002D+01  .186264514923D-08  .000000000000D+00
R23 2016 01 05 11 45 00 -.669518485665D-04 -.363797880709D-11  .414000000000D+05
      .644507470703D+04 -.299600791931D+01  .931322574615D-09  .000000000000D+00
      .906396826172D+04  .955421447754D+00 -.931322574615D-09  .300000000000D+01
     -.229595161133D+05 -.464288711548D+00  .186264514923D-08  .000000000000D+00
R06 2016 01 05 11 45 00  .813659280539D-04  .909494701773D-12  .414000000000D+05
     -.103416875000D+05  .570964813232D+00  .931322574615D-09  .000000000000D+00
     -.483024511719D+04 -.306673526764D+01  .000000000000D+00 -.400000000000D+01
     -.228330742188D+05  .387770652771D+00  .186264514923D-08  .000000000000D+00
R01 2016 01 05 11 45 00 -.147076323628D-03  .000000000000D+00  .424500000000D+05
      .225777148438D+04 -.227649688721D+00 -.279396772385D-08  .000000000000D+00
      .217801772461D+05  .178170013428D+01  .000000000000D+00  .100000000000D+01
      .130930092773D+05 -.292150402069D+01  .000000000000D+00  .000000000000D+00
R22 2016 01 05 12 15 00  .187325291336D-03  .000000000000D+00  .432000000000D+05
     -.163489111328D+05 -.154479980469D+01 -.931322574615D-09  .000000000000D+00
      .145216318359D+05  .917182922363D+00  .931322574615D-09 -.300000000000D+01
     -.130163813477D+05  .297415542603D+01  .279396772385D-08  .000000000000D+00
R08 2016 01 05 12 15 00 -.270325690508D-04  .000000000000D+00  .432000000000D+05
     -.607829296875D+04  .230430603027D+00 -.186264514923D-08  .000000000000D+00
      .228736508789D+05 -.129335403442D+01  .931322574615D-09  .600000000000D+01
     -.948957714844D+04 -.324897575378D+01  .186264514923D-08  .000000000000D+00
R07 2016 01 05 12 15 00 -.515859574080D-05  .000000000000D+00  .432000000000D+05
     -.108221425781D+05  .253576278687D+00  .000000000000D+00  .000000000000D+00
      .863446582031D+04 -.292562484741D+01  .000000000000D+00  .500000000000D+01
     -.213940444336D+05 -.130958271027D+01  .279396772385D-08  .000000000000D+00
R23 2016 01 05 12 15 00 -.669592991471D-04 -.363797880709D-11  .432000000000D+05
      .117311328125D+04 -.281321907043D+01  .000000000000D+00  .000000000000D+00
      .111891743164D+05  .138596534729D+01  .000000000000D+00  .300000000000D+01
     -.228974204102D+05  .532824516296D+00  .186264514923D-08  .000000000000D+00
R21 2016 01 05 12 15 00  .454466789961D-04  .181898940355D-11  .432000000000D+05
     -.234803911133D+05  .625141143799D+00 -.186264514923D-08  .000000000000D+00
      .898660742188D+04 -.907926559448D-01  .279396772385D-08  .400000000000D+01
      .440762792969D+04  .351499748230D+01  .931322574615D-09  .000000000000D+00
R06 2016 01 05 12 15 00  .813677906990D-04  .909494701773D-12  .432000000000D+05
     -.972759472656D+04  .115102767944D+00  .186264514923D-08  .000000000000D+00
     -.102479624023D+05 -.290260791779D+01  .000000000000D+00 -.400000000000D+01
     -.212636245117D+05  .134471893311D+01  .186264514923D-08  .000000000000D+00
R01 2016 01 05 12 15 00 -.147075392306D-03  .000000000000D+00  .432000000000D+05
      .214634960938D+04  .709962844849D-01 -.186264514923D-08  .000000000000D+00
      .243253339844D+05  .101888561249D+01  .931322574615D-09  .100000000000D+01
      .739632617187D+04 -.336705112457D+01  .000000000000D+00  .000000000000D+00
R08 2016 01 05 12 45 00 -.270325690508D-04  .000000000000D+00  .450000000000D+05
     -.585083789062D+04 -.121774673462D-01 -.931322574615D-09  .000000000000D+00
      .198391918945D+05 -.205069637299D+01  .931322574615D-09  .600000000000D+01
     -.148946113281D+05 -.271745395660D+01  .279396772385D-08  .000000000000D+00
R22 2016 01 05 12 45 00  .187326222658D-03  .000000000000D+00  .450000000000D+05
     -.184003769531D+05 -.732533454895D+00 -.931322574615D-09  .000000000000D+00
      .160136069336D+05  .696339607239D+00  .186264514923D-08 -.300000000000D+01
     -.722561914063D+04  .341799354553D+01  .186264514923D-08  .000000000000D+00
R23 2016 01 05 12 45 00 -.669658184052D-04 -.363797880709D-11  .450000000000D+05
     -.352448681641D+04 -.236837768555D+01  .000000000000D+00  .000000000000D+00
      .139528344727D+05  .164972019196D+01  .000000000000D+00  .300000000000D+01
     -.210661279297D+05  .148874378204D+01  .279396772385D-08  .000000000000D+00
R07 2016 01 05 12 45 00 -.516045838594D-05  .000000000000D+00  .450000000000D+05
     -.107531542969D+05 -.186542510986D+00  .931322574615D-09  .000000000000D+00
      .313416455078D+04 -.313546848297D+01  .000000000000D+00  .500000000000D+01
     -.228914389648D+05 -.343400001526D+00  .279396772385D-08  .000000000000D+00
R01 2016 01 05 12 45 00 -.147074460983D-03  .000000000000D+00  .450000000000D+05
      .238029248047D+04  .149266242981D+00 -.186264514923D-08  .000000000000D+00
      .253810620117D+05  .144817352295D+00  .931322574615D-09  .100000000000D+01
      .112816210937D+04 -.355238151550D+01  .931322574615D-09  .000000000000D+00
R21 2016 01 05 12 45 00  .454504042864D-04  .181898940355D-11  .450000000000D+05
     -.217219130859D+05  .129471206665D+01 -.186264514923D-08  .000000000000D+00
      .835114794922D+04 -.641098976135D+00  .279396772385D-08  .400000000000D+01
      .104829345703D+05  .319158744812D+01  .931322574615D-09  .000000000000D+00
R24 2016 01 05 12 45 00 -.132522545755D-03  .000000000000D+00  .452400000000D+05
      .120451093750D+05 -.256162834167D+01  .931322574615D-09  .000000000000D+00
      .432589501953D+04  .160164451599D+01 -.186264514923D-08  .200000000000D+01
     -.220860825195D+05 -.108387947083D+01  .931322574615D-09  .000000000000D+00
R23 2016 01 05 13 15 00 -.669732689857D-04 -.363797880709D-11  .468000000000D+05
     -.724378320313D+04 -.174229621887D+01  .000000000000D+00  .000000000000D+00
      .169825644531D+05  .167214012146D+01  .931322574615D-09  .300000000000D+01
     -.176071103516D+05  .232968139648D+01  .279396772385D-08  .000000000000D+00
R08 2016 01 05 13 15 00 -.270335003734D-04  .000000000000D+00  .468000000000D+05
     -.622550341797D+04 -.425968170166D+00  .000000000000D+00  .000000000000D+00
      .156180737305D+05 -.259758090973D+01  .000000000000D+00  .600000000000D+01
     -.191453403320D+05 -.197470951080D+01  .279396772385D-08  .000000000000D+00
R22 2016 01 05 13 15 00  .187327153981D-03  .000000000000D+00  .468000000000D+05
     -.190139609375D+05  .335683822632D-01 -.931322574615D-09  .000000000000D+00
      .168766567383D+05  .224040985107D+00  .279396772385D-08 -.300000000000D+01
     -.871738281250D+03  .359565734863D+01  .186264514923D-08  .000000000000D+00
R01 2016 01 05 13 15 00 -.147073529661D-03  .000000000000D+00  .468000000000D+05
      .253910839844D+04 -.119524002075D-01 -.186264514923D-08  .000000000000D+00
      .248481225586D+05 -.726874351501D+00  .931322574615D-09  .100000000000D+01
     -.522716113281D+04 -.346328353882D+01  .186264514923D-08  .000000000000D+00
R07 2016 01 05 13 15 00 -.516138970852D-05  .000000000000D+00  .468000000000D+05
     -.114959072266D+05 -.630302429199D+00  .931322574615D-09  .000000000000D+00
     -.246782470703D+04 -.303790283203D+01  .000000000000D+00  .500000000000D+01
     -.226144775391D+05  .649061203003D+00  .186264514923D-08  .000000000000D+00
R24 2016 01 05 13 15 00 -.132523477077D-03  .000000000000D+00  .468000000000D+05
      .753407275391D+04 -.240518760681D+01  .000000000000D+00  .000000000000D+00
      .764523046875D+04  .206104087830D+01 -.931322574615D-09  .200000000000D+01
     -.231600996094D+05 -.101751327515D+00  .186264514923D-08  .000000000000D+00
R23 2016 01 05 13 45 00 -.669807195663D-04 -.363797880709D-11  .486000000000D+05
     -.975160449219D+04 -.104123115540D+01  .000000000000D+00  .000000000000D+00
      .198056533203D+05  .141797733307D+01  .186264514923D-08  .300000000000D+01
     -.127875166016D+05  .299068260193D+01  .279396772385D-08  .000000000000D+00
R08 2016 01 05 13 45 00 -.270344316959D-04  .000000000000D+00  .486000000000D+05
     -.743363427734D+04 -.921363830566D+00  .000000000000D+00  .000000000000D+00
      .106553286133D+05 -.286687850952D+01  .000000000000D+00  .600000000000D+01
     -.219110283203D+05 -.107814788818D+01  .279396772385D-08  .000000000000D+00
R01 2016 01 05 13 45 00 -.147073529661D-03  .000000000000D+00  .486000000000D+05
      .220790380859D+04 -.387403488159D+00 -.931322574615D-09  .000000000000D+00
      .228337055664D+05 -.148356151581D+01  .931322574615D-09  .100000000000D+01
     -.111787646484D+05 -.310672378540D+01  .186264514923D-08  .000000000000D+00
R22 2016 01 05 13 45 00  .187327153981D-03  .000000000000D+00  .486000000000D+05
     -.183717216797D+05  .647000312805D+00 -.931322574615D-09  .000000000000D+00
      .167019218750D+05 -.444072723389D+00  .279396772385D-08 -.300000000000D+01
      .555011718750D+04  .349302768707D+01  .931322574615D-09  .000000000000D+00
R24 2016 01 05 13 45 00 -.132523477077D-03  .000000000000D+00  .486000000000D+05
      .353150830078D+04 -.200819206238D+01  .000000000000D+00  .000000000000D+00
      .116264492187D+05  .232278823853D+01  .000000000000D+00  .200000000000D+01
     -.224476328125D+05  .888278961182D+00  .186264514923D-08  .000000000000D+00
